[{"OBJECT_NAME":"ORBCOMM FM32","OBJECT_ID":"1999-065C","EPOCH":"2026-03-09T01:02:29.080032","MEAN_MOTION":14.3696516,"ECCENTRICITY":0.00057226,"INCLINATION":45.0154,"RA_OF_ASC_NODE":287.2018,"ARG_OF_PERICENTER":281.4865,"MEAN_ANOMALY":78.534,"EPHEMERIS_TYPE":0,"CLASSIFICATION_TYPE":"U","NORAD_CAT_ID":25982,"ELEMENT_SET_NO":999,"REV_AT_EPOCH":37268,"BSTAR":0.00040930249,"MEAN_MOTION_DOT":1.082e-5,"MEAN_MOTION_DDOT":0},{"OBJECT_NAME":"COSMOS 2251 DEB","OBJECT_ID":"1993-036ALP","EPOCH":"2026-03-08T01:55:04.115136","MEAN_MOTION":14.49907043,"ECCENTRICITY":0.00770429,"INCLINATION":74.0152,"RA_OF_ASC_NODE":223.4449,"ARG_OF_PERICENTER":356.1121,"MEAN_ANOMALY":3.943,"EPHEMERIS_TYPE":0,"CLASSIFICATION_TYPE":"U","NORAD_CAT_ID":35469,"ELEMENT_SET_NO":999,"REV_AT_EPOCH":89348,"BSTAR":0.00013617922,"MEAN_MOTION_DOT":5.17e-6,"MEAN_MOTION_DDOT":0}]
